{
  "type": "FeatureCollection",
  "features": [
    {
      "type": "Feature",
      "properties": {
        "norad_id": 46444,
        "name": "FENGYUN 1C DEB",
        "group": "fengyun-1c-debris",
        "lat": -64.24642728575105,
        "lon": 146.1866250411915,
        "alt_km": 798.9068346490258,
        "timestamp": "2025-12-08T03:50:07.287420+00:00",
        "meta_object_name": "FENGYUN 1C DEB",
        "meta_object_id": "1999-025EYZ",
        "meta_epoch": "2025-12-06T07:00:57.282624",
        "meta_mean_motion": 14.27131481,
        "meta_eccentricity": 0.008372,
        "meta_inclination": 98.5117,
        "meta_ra_of_asc_node": 342.454,
        "meta_arg_of_pericenter": 169.7259,
        "meta_mean_anomaly": 205.8382,
        "meta_ephemeris_type": 0,
        "meta_classification_type": "U",
        "meta_norad_cat_id": 46444,
        "meta_element_set_no": 999,
        "meta_rev_at_epoch": 62490,
        "meta_bstar": 0.00087017371,
        "meta_mean_motion_dot": 2.161e-05,
        "meta_mean_motion_ddot": 0,
        "tle_line1": "1 46444U 99025EYZ 25340.29232966  .00002161  00000+0  87017-3 0  9995",
        "tle_line2": "2 46444  98.5117 342.4540 0083720 169.7259 205.8382 14.27131481624907"
      },
      "geometry": {
        "type": "Point",
        "coordinates": [
          146.1866250411915,
          -64.24642728575105
        ]
      }
    },
    {
      "type": "Feature",
      "properties": {
        "norad_id": 46449,
        "name": "FENGYUN 1C DEB",
        "group": "fengyun-1c-debris",
        "lat": 9.670761228905818,
        "lon": -161.85961399982102,
        "alt_km": 887.4997038594311,
        "timestamp": "2025-12-08T03:50:07.287430+00:00",
        "meta_object_name": "FENGYUN 1C DEB",
        "meta_object_id": "1999-025EZE",
        "meta_epoch": "2025-11-27T19:57:02.428704",
        "meta_mean_motion": 14.19021773,
        "meta_eccentricity": 0.02029501,
        "meta_inclination": 98.6463,
        "meta_ra_of_asc_node": 6.5721,
        "meta_arg_of_pericenter": 314.0231,
        "meta_mean_anomaly": 44.4375,
        "meta_ephemeris_type": 0,
        "meta_classification_type": "U",
        "meta_norad_cat_id": 46449,
        "meta_element_set_no": 999,
        "meta_rev_at_epoch": 57425,
        "meta_bstar": 0.00050383916,
        "meta_mean_motion_dot": 1.244e-05,
        "meta_mean_motion_ddot": 0,
        "tle_line1": "1 46449U 99025EZE 25331.83127811  .00001244  00000+0  50384-3 0  9990",
        "tle_line2": "2 46449  98.6463   6.5721 0202950 314.0231  44.4375 14.19021773574253"
      },
      "geometry": {
        "type": "Point",
        "coordinates": [
          -161.85961399982102,
          9.670761228905818
        ]
      }
    },
    {
      "type": "Feature",
      "properties": {
        "norad_id": 46450,
        "name": "FENGYUN 1C DEB",
        "group": "fengyun-1c-debris",
        "lat": -48.270356961463875,
        "lon": 10.151328121313574,
        "alt_km": 1007.6482662214166,
        "timestamp": "2025-12-08T03:50:07.287440+00:00",
        "meta_object_name": "FENGYUN 1C DEB",
        "meta_object_id": "1999-025EZF",
        "meta_epoch": "2025-12-05T08:02:04.531488",
        "meta_mean_motion": 14.03487507,
        "meta_eccentricity": 0.0182173,
        "meta_inclination": 98.079,
        "meta_ra_of_asc_node": 196.8025,
        "meta_arg_of_pericenter": 82.0832,
        "meta_mean_anomaly": 280.097,
        "meta_ephemeris_type": 0,
        "meta_classification_type": "U",
        "meta_norad_cat_id": 46450,
        "meta_element_set_no": 999,
        "meta_rev_at_epoch": 61015,
        "meta_bstar": 0.0037253219,
        "meta_mean_motion_dot": 6.729e-05,
        "meta_mean_motion_ddot": 0,
        "tle_line1": "1 46450U 99025EZF 25339.33477467  .00006729  00000+0  37253-2 0  9992",
        "tle_line2": "2 46450  98.0790 196.8025 0182173  82.0832 280.0970 14.03487507610158"
      },
      "geometry": {
        "type": "Point",
        "coordinates": [
          10.151328121313574,
          -48.270356961463875
        ]
      }
    },
    {
      "type": "Feature",
      "properties": {
        "norad_id": 46451,
        "name": "FENGYUN 1C DEB",
        "group": "fengyun-1c-debris",
        "lat": -74.58597946142523,
        "lon": 33.06694949535173,
        "alt_km": 816.5232620974703,
        "timestamp": "2025-12-08T03:50:07.287451+00:00",
        "meta_object_name": "FENGYUN 1C DEB",
        "meta_object_id": "1999-025EZG",
        "meta_epoch": "2025-12-06T08:19:16.866336",
        "meta_mean_motion": 14.20265955,
        "meta_eccentricity": 0.01713541,
        "meta_inclination": 98.1565,
        "meta_ra_of_asc_node": 0.0492,
        "meta_arg_of_pericenter": 204.5085,
        "meta_mean_anomaly": 171.6442,
        "meta_ephemeris_type": 0,
        "meta_classification_type": "U",
        "meta_norad_cat_id": 46451,
        "meta_element_set_no": 999,
        "meta_rev_at_epoch": 56916,
        "meta_bstar": 0.0047466269,
        "meta_mean_motion_dot": 0.00011737,
        "meta_mean_motion_ddot": 0,
        "tle_line1": "1 46451U 99025EZG 25340.34672299  .00011737  00000+0  47466-2 0  9998",
        "tle_line2": "2 46451  98.1565   0.0492 0171354 204.5085 171.6442 14.20265955569167"
      },
      "geometry": {
        "type": "Point",
        "coordinates": [
          33.06694949535173,
          -74.58597946142523
        ]
      }
    },
    {
      "type": "Feature",
      "properties": {
        "norad_id": 46468,
        "name": "FENGYUN 1C DEB",
        "group": "fengyun-1c-debris",
        "lat": 80.91688596567155,
        "lon": -8.158415568299091,
        "alt_km": 831.6511284117632,
        "timestamp": "2025-12-08T03:50:07.287460+00:00",
        "meta_object_name": "FENGYUN 1C DEB",
        "meta_object_id": "1999-025EZK",
        "meta_epoch": "2025-12-05T11:40:56.057088",
        "meta_mean_motion": 14.24624846,
        "meta_eccentricity": 0.00454022,
        "meta_inclination": 98.8836,
        "meta_ra_of_asc_node": 67.1806,
        "meta_arg_of_pericenter": 250.6717,
        "meta_mean_anomaly": 176.0596,
        "meta_ephemeris_type": 0,
        "meta_classification_type": "U",
        "meta_norad_cat_id": 46468,
        "meta_element_set_no": 999,
        "meta_rev_at_epoch": 73713,
        "meta_bstar": 0.0036232179,
        "meta_mean_motion_dot": 8.473e-05,
        "meta_mean_motion_ddot": 0,
        "tle_line1": "1 46468U 99025EZK 25339.48675992  .00008473  00000+0  36232-2 0  9994",
        "tle_line2": "2 46468  98.8836  67.1806 0045402 250.6717 176.0596 14.24624846737139"
      },
      "geometry": {
        "type": "Point",
        "coordinates": [
          -8.158415568299091,
          80.91688596567155
        ]
      }
    },
    {
      "type": "Feature",
      "properties": {
        "norad_id": 46986,
        "name": "FENGYUN 1C DEB",
        "group": "fengyun-1c-debris",
        "lat": -74.74024914671512,
        "lon": 153.956498087325,
        "alt_km": 678.7104745603674,
        "timestamp": "2025-12-08T03:50:07.287470+00:00",
        "meta_object_name": "FENGYUN 1C DEB",
        "meta_object_id": "1999-025EZL",
        "meta_epoch": "2025-12-01T08:01:27.390720",
        "meta_mean_motion": 14.47112781,
        "meta_eccentricity": 0.01038428,
        "meta_inclination": 98.2357,
        "meta_ra_of_asc_node": 359.3803,
        "meta_arg_of_pericenter": 247.048,
        "meta_mean_anomaly": 111.973,
        "meta_ephemeris_type": 0,
        "meta_classification_type": "U",
        "meta_norad_cat_id": 46986,
        "meta_element_set_no": 999,
        "meta_rev_at_epoch": 63235,
        "meta_bstar": 0.00048896767,
        "meta_mean_motion_dot": 1.859e-05,
        "meta_mean_motion_ddot": 0,
        "tle_line1": "1 46986U 99025EZL 25335.33434480  .00001859  00000+0  48897-3 0  9996",
        "tle_line2": "2 46986  98.2357 359.3803 0103842 247.0480 111.9730 14.47112781632350"
      },
      "geometry": {
        "type": "Point",
        "coordinates": [
          153.956498087325,
          -74.74024914671512
        ]
      }
    },
    {
      "type": "Feature",
      "properties": {
        "norad_id": 46989,
        "name": "FENGYUN 1C DEB",
        "group": "fengyun-1c-debris",
        "lat": 23.41659787616718,
        "lon": 139.7479145110507,
        "alt_km": 820.5349865546132,
        "timestamp": "2025-12-08T03:50:07.287480+00:00",
        "meta_object_name": "FENGYUN 1C DEB",
        "meta_object_id": "1999-025EZP",
        "meta_epoch": "2025-12-01T09:56:49.877952",
        "meta_mean_motion": 13.7915922,
        "meta_eccentricity": 0.02374727,
        "meta_inclination": 99.5096,
        "meta_ra_of_asc_node": 137.1371,
        "meta_arg_of_pericenter": 7.3744,
        "meta_mean_anomaly": 21.4435,
        "meta_ephemeris_type": 0,
        "meta_classification_type": "U",
        "meta_norad_cat_id": 46989,
        "meta_element_set_no": 999,
        "meta_rev_at_epoch": 70886,
        "meta_bstar": 0.0040160764,
        "meta_mean_motion_dot": 5.034e-05,
        "meta_mean_motion_ddot": 0,
        "tle_line1": "1 46989U 99025EZP 25335.41446618  .00005034  00000+0  40161-2 0  9998",
        "tle_line2": "2 46989  99.5096 137.1371 0237472   7.3744  21.4435 13.79159220708866"
      },
      "geometry": {
        "type": "Point",
        "coordinates": [
          139.7479145110507,
          23.41659787616718
        ]
      }
    }
  ]
}